{
  "norad_id": 67751,
  "name": "2026-027F",
  "history": [
    {
      "epoch": "2026-03-27T10:35:12.893280",
      "apogee_km": 520.4875127301475,
      "perigee_km": 520.2543431621825,
      "latitude_deg": -84.1534974026414,
      "longitude_deg": -178.5523407999426,
      "semi_major_axis_km": 6898.507927946164,
      "eccentricity": 1.69e-05,
      "inclination_deg": 97.4942,
      "raan_deg": 215.2722,
      "arg_perigee_deg": 201.7078,
      "mean_anomaly_deg": 158.4147,
      "mean_motion_rev_day": 15.1520017
    }
  ]
}